STARLINK-2022           
1 47643U 21012Z   24099.32812113  .00000481  00000+0  51205-4 0  9994
2 47643  53.0556 315.6630 0001364  97.8130 262.3013 15.06401224174707
